0 SL-16 DEB
1 36030U 96051M   13281.51771583  .00010316  00000-0  39736-2 0  2168
2 36030 070.8715 342.2896 0040311 008.6039 351.7460 14.30016663206825
0 SL-16 DEB
1 36030U 96051M   13285.50471482  .00010050  00000-0  38644-2 0  2179
2 36030 070.8694 333.6572 0041053 003.0098 357.0669 14.30095013207393
0 SL-16 DEB
1 36030U 96051M   13287.53312980  .00015145  00000-0  58032-2 0  2185
2 36030 070.8717 329.2523 0041743 357.3881 002.7024 14.30134025207674
0 SL-16 DEB
1 36030U 96051M   13290.47069894  .00015582  00000-0  59600-2 0  2193
2 36030 070.8702 322.8857 0042052 352.5323 007.5175 14.30209386208099
0 SL-16 DEB
1 36030U 96051M   13290.47070950  .00014702  00000-0  56114-2 0  2198
2 36030 070.8713 322.8857 0041927 352.7693 007.3308 14.30221330208092
0 SL-16 DEB
1 36030U 96051M   13292.42899867  .00013536  00000-0  51757-2 0  2205
2 36030 070.8707 318.6416 0042568 349.4581 010.5652 14.30253686208378
